{
    "links": {
        "self": "http://www.neowsapp.com/rest/v1/neo/3584137?api_key=iIulBulltgU6a56xZRHN4H3l9WmuAYTsLGpBGhQ2"
    },
    "id": "3584137",
    "neo_reference_id": "3584137",
    "name": "(2011 UA193)",
    "designation": "2011 UA193",
    "nasa_jpl_url": "http://ssd.jpl.nasa.gov/sbdb.cgi?sstr=3584137",
    "absolute_magnitude_h": 24.7,
    "estimated_diameter": {
        "kilometers": {
            "estimated_diameter_min": 0.0305179233,
            "estimated_diameter_max": 0.0682401509
        },
        "meters": {
            "estimated_diameter_min": 30.5179232594,
            "estimated_diameter_max": 68.2401509401
        },
        "miles": {
            "estimated_diameter_min": 0.0189629525,
            "estimated_diameter_max": 0.0424024508
        },
        "feet": {
            "estimated_diameter_min": 100.1244233463,
            "estimated_diameter_max": 223.8850168104
        }
    },
    "is_potentially_hazardous_asteroid": false,
    "close_approach_data": [
        {
            "close_approach_date": "2011-10-28",
            "close_approach_date_full": "2011-Oct-28 20:46",
            "epoch_date_close_approach": 1319834760000,
            "relative_velocity": {
                "kilometers_per_second": "9.9395880678",
                "kilometers_per_hour": "35782.5170439416",
                "miles_per_hour": "22233.8645487758"
            },
            "miss_distance": {
                "astronomical": "0.0320715932",
                "lunar": "12.4758497548",
                "kilometers": "4797842.030226484",
                "miles": "2981240.7956101192"
            },
            "orbiting_body": "Earth"
        }
    ],
    "orbital_data": {
        "orbit_id": "10",
        "orbit_determination_date": "2017-04-06 08:52:11",
        "first_observation_date": "2011-10-28",
        "last_observation_date": "2011-11-05",
        "data_arc_in_days": 8,
        "observations_used": 59,
        "orbit_uncertainty": "8",
        "minimum_orbit_intersection": ".0320596",
        "jupiter_tisserand_invariant": "3.173",
        "epoch_osculation": "2455866.5",
        "eccentricity": ".5905040570590436",
        "semi_major_axis": "2.504468394742756",
        "inclination": "11.95667309936267",
        "ascending_node_longitude": "215.1642095733204",
        "orbital_period": "1447.677284900197",
        "perihelion_distance": "1.025569646871008",
        "perihelion_argument": "180.5805379309447",
        "aphelion_distance": "3.983367142614503",
        "perihelion_time": "2455864.072154343507",
        "mean_anomaly": ".6037425919808743",
        "mean_motion": ".2486742064373955",
        "equinox": "J2000",
        "orbit_class": {
            "orbit_class_type": "AMO",
            "orbit_class_description": "Near-Earth asteroid orbits similar to that of 1221 Amor",
            "orbit_class_range": "1.017 AU < q (perihelion) < 1.3 AU"
        }
    },
    "is_sentry_object": false
}